ONEWEB-0358             
1 49284U 21090F   26021.28800120  .00000110  00000+0  23971-3 0  9997
2 49284  87.9234 303.7446 0001853  78.5379 281.5962 13.20772187211167
ONEWEB-0359             
1 49285U 21090G   26021.20908700  .00000156  00000+0  35265-3 0  9992
2 49285  87.9233 303.7580 0001947  87.1805 272.9551 13.20772560211130
ONEWEB-0360             
1 49286U 21090H   26021.50264109  .00000082  00000+0  16853-3 0  9994
2 49286  87.9230 303.7063 0001726  80.8212 279.3117 13.20773405210486
ONEWEB-0361             
1 49287U 21090J   26021.48370306  .00000221  00000+0  51044-3 0  9995
2 49287  87.9231 303.7077 0001863  73.5196 286.6142 13.20773862210931
ONEWEB-0362             
1 49288U 21090K   26021.39592236  .00000128  00000+0  28633-3 0  9998
2 49288  87.9231 334.1942 0001549  82.6772 277.4536 13.19726325207552
ONEWEB-0363             
1 49289U 21090L   26021.27221822  .00000146  00000+0  32605-3 0  9990
2 49289  87.9234 303.7499 0002046  73.2763 286.8594 13.20772086210913
ONEWEB-0364             
1 49290U 21090M   26021.23434080  .00000131  00000+0  28930-3 0  9990
2 49290  87.9220 303.7772 0001818  74.9912 285.1423 13.20772461212040
ONEWEB-0365             
1 49291U 21090N   26021.40538716  .00000046  00000+0  83417-4 0  9998
2 49291  87.9248 334.1648 0001670  78.7574 281.3746 13.19727839207062
ONEWEB-0366             
1 49292U 21090P   26021.30020971 -.00000076  00000+0 -23989-3 0  9999
2 49292  87.9026 318.9915 0001770  78.2968 281.8361 13.14501527208267
ONEWEB-0367             
1 49293U 21090Q   26021.49790631  .00000121  00000+0  26570-3 0  9995
2 49293  87.9233 303.7045 0001495  78.5201 281.6100 13.20773368210466
ONEWEB-0368             
1 49294U 21090R   26021.47107093  .00000178  00000+0  40504-3 0  9993
2 49294  87.9223 303.7360 0001989  52.3092 307.8221 13.20774539211616
ONEWEB-0369             
1 49295U 21090S   26021.40065760  .00000082  00000+0  17259-3 0  9996
2 49295  87.9236 334.1888 0001737  76.4031 283.7296 13.19725616207052
ONEWEB-0370             
1 49296U 21090T   26021.50730645  .00000107  00000+0  23220-3 0  9992
2 49296  87.9231 303.7052 0001838  87.0446 273.0897 13.20812619210508
ONEWEB-0371             
1 49297U 21090U   26021.33274575  .00000107  00000+0  23431-3 0  9993
2 49297  87.9240 334.1899 0001704  78.1589 281.9734 13.19725865207088
ONEWEB-0372             
1 49298U 21090V   26021.49619586  .00000153  00000+0  34382-3 0  9994
2 49298  87.9230 303.7066 0001630  73.3192 286.8121 13.20772446210471
ONEWEB-0373             
1 49299U 21090W   26021.22012161  .00000109  00000+0  23660-3 0  9990
2 49299  87.9220 303.7726 0001790  78.4817 281.6517 13.20773547211624
ONEWEB-0374             
1 49300U 21090X   26021.36363074  .00000209  00000+0  52922-3 0  9994
2 49300  87.9030 318.9600 0002190  69.1441 290.9923 13.14504810208279
