[{"OBJECT_NAME":"ONEWEB-0358","OBJECT_ID":"2021-090F","EPOCH":"2026-01-21T06:54:43.303680","MEAN_MOTION":13.20772187,"ECCENTRICITY":0.0001853,"INCLINATION":87.9234,"RA_OF_ASC_NODE":303.7446,"ARG_OF_PERICENTER":78.5379,"MEAN_ANOMALY":281.5962,"EPHEMERIS_TYPE":0,"CLASSIFICATION_TYPE":"U","NORAD_CAT_ID":49284,"ELEMENT_SET_NO":999,"REV_AT_EPOCH":21116,"BSTAR":0.00023971,"MEAN_MOTION_DOT":1.1e-6,"MEAN_MOTION_DDOT":0},{"OBJECT_NAME":"ONEWEB-0359","OBJECT_ID":"2021-090G","EPOCH":"2026-01-21T05:01:05.116800","MEAN_MOTION":13.2077256,"ECCENTRICITY":0.0001947,"INCLINATION":87.9233,"RA_OF_ASC_NODE":303.758,"ARG_OF_PERICENTER":87.1805,"MEAN_ANOMALY":272.9551,"EPHEMERIS_TYPE":0,"CLASSIFICATION_TYPE":"U","NORAD_CAT_ID":49285,"ELEMENT_SET_NO":999,"REV_AT_EPOCH":21113,"BSTAR":0.00035265,"MEAN_MOTION_DOT":1.56e-6,"MEAN_MOTION_DDOT":0},{"OBJECT_NAME":"ONEWEB-0360","OBJECT_ID":"2021-090H","EPOCH":"2026-01-21T12:03:48.190176","MEAN_MOTION":13.20773405,"ECCENTRICITY":0.0001726,"INCLINATION":87.923,"RA_OF_ASC_NODE":303.7063,"ARG_OF_PERICENTER":80.8212,"MEAN_ANOMALY":279.3117,"EPHEMERIS_TYPE":0,"CLASSIFICATION_TYPE":"U","NORAD_CAT_ID":49286,"ELEMENT_SET_NO":999,"REV_AT_EPOCH":21048,"BSTAR":0.00016853,"MEAN_MOTION_DOT":8.2e-7,"MEAN_MOTION_DDOT":0},{"OBJECT_NAME":"ONEWEB-0361","OBJECT_ID":"2021-090J","EPOCH":"2026-01-21T11:36:31.944384","MEAN_MOTION":13.20773862,"ECCENTRICITY":0.0001863,"INCLINATION":87.9231,"RA_OF_ASC_NODE":303.7077,"ARG_OF_PERICENTER":73.5196,"MEAN_ANOMALY":286.6142,"EPHEMERIS_TYPE":0,"CLASSIFICATION_TYPE":"U","NORAD_CAT_ID":49287,"ELEMENT_SET_NO":999,"REV_AT_EPOCH":21093,"BSTAR":0.00051044,"MEAN_MOTION_DOT":2.21e-6,"MEAN_MOTION_DDOT":0},{"OBJECT_NAME":"ONEWEB-0362","OBJECT_ID":"2021-090K","EPOCH":"2026-01-21T09:30:07.691904","MEAN_MOTION":13.19726325,"ECCENTRICITY":0.0001549,"INCLINATION":87.9231,"RA_OF_ASC_NODE":334.1942,"ARG_OF_PERICENTER":82.6772,"MEAN_ANOMALY":277.4536,"EPHEMERIS_TYPE":0,"CLASSIFICATION_TYPE":"U","NORAD_CAT_ID":49288,"ELEMENT_SET_NO":999,"REV_AT_EPOCH":20755,"BSTAR":0.00028633,"MEAN_MOTION_DOT":1.28e-6,"MEAN_MOTION_DDOT":0},{"OBJECT_NAME":"ONEWEB-0363","OBJECT_ID":"2021-090L","EPOCH":"2026-01-21T06:31:59.654208","MEAN_MOTION":13.20772086,"ECCENTRICITY":0.0002046,"INCLINATION":87.9234,"RA_OF_ASC_NODE":303.7499,"ARG_OF_PERICENTER":73.2763,"MEAN_ANOMALY":286.8594,"EPHEMERIS_TYPE":0,"CLASSIFICATION_TYPE":"U","NORAD_CAT_ID":49289,"ELEMENT_SET_NO":999,"REV_AT_EPOCH":21091,"BSTAR":0.00032605,"MEAN_MOTION_DOT":1.46e-6,"MEAN_MOTION_DDOT":0},{"OBJECT_NAME":"ONEWEB-0364","OBJECT_ID":"2021-090M","EPOCH":"2026-01-21T05:37:27.045120","MEAN_MOTION":13.20772461,"ECCENTRICITY":0.0001818,"INCLINATION":87.922,"RA_OF_ASC_NODE":303.7772,"ARG_OF_PERICENTER":74.9912,"MEAN_ANOMALY":285.1423,"EPHEMERIS_TYPE":0,"CLASSIFICATION_TYPE":"U","NORAD_CAT_ID":49290,"ELEMENT_SET_NO":999,"REV_AT_EPOCH":21204,"BSTAR":0.0002893,"MEAN_MOTION_DOT":1.31e-6,"MEAN_MOTION_DDOT":0},{"OBJECT_NAME":"ONEWEB-0365","OBJECT_ID":"2021-090N","EPOCH":"2026-01-21T09:43:45.450624","MEAN_MOTION":13.19727839,"ECCENTRICITY":0.000167,"INCLINATION":87.9248,"RA_OF_ASC_NODE":334.1648,"ARG_OF_PERICENTER":78.7574,"MEAN_ANOMALY":281.3746,"EPHEMERIS_TYPE":0,"CLASSIFICATION_TYPE":"U","NORAD_CAT_ID":49291,"ELEMENT_SET_NO":999,"REV_AT_EPOCH":20706,"BSTAR":8.3417e-5,"MEAN_MOTION_DOT":4.6e-7,"MEAN_MOTION_DDOT":0},{"OBJECT_NAME":"ONEWEB-0366","OBJECT_ID":"2021-090P","EPOCH":"2026-01-21T07:12:18.118944","MEAN_MOTION":13.14501527,"ECCENTRICITY":0.000177,"INCLINATION":87.9026,"RA_OF_ASC_NODE":318.9915,"ARG_OF_PERICENTER":78.2968,"MEAN_ANOMALY":281.8361,"EPHEMERIS_TYPE":0,"CLASSIFICATION_TYPE":"U","NORAD_CAT_ID":49292,"ELEMENT_SET_NO":999,"REV_AT_EPOCH":20826,"BSTAR":-0.00023989,"MEAN_MOTION_DOT":-7.6e-7,"MEAN_MOTION_DDOT":0},{"OBJECT_NAME":"ONEWEB-0367","OBJECT_ID":"2021-090Q","EPOCH":"2026-01-21T11:56:59.105184","MEAN_MOTION":13.20773368,"ECCENTRICITY":0.0001495,"INCLINATION":87.9233,"RA_OF_ASC_NODE":303.7045,"ARG_OF_PERICENTER":78.5201,"MEAN_ANOMALY":281.61,"EPHEMERIS_TYPE":0,"CLASSIFICATION_TYPE":"U","NORAD_CAT_ID":49293,"ELEMENT_SET_NO":999,"REV_AT_EPOCH":21046,"BSTAR":0.0002657,"MEAN_MOTION_DOT":1.21e-6,"MEAN_MOTION_DDOT":0},{"OBJECT_NAME":"ONEWEB-0368","OBJECT_ID":"2021-090R","EPOCH":"2026-01-21T11:18:20.528352","MEAN_MOTION":13.20774539,"ECCENTRICITY":0.0001989,"INCLINATION":87.9223,"RA_OF_ASC_NODE":303.736,"ARG_OF_PERICENTER":52.3092,"MEAN_ANOMALY":307.8221,"EPHEMERIS_TYPE":0,"CLASSIFICATION_TYPE":"U","NORAD_CAT_ID":49294,"ELEMENT_SET_NO":999,"REV_AT_EPOCH":21161,"BSTAR":0.00040504,"MEAN_MOTION_DOT":1.78e-6,"MEAN_MOTION_DDOT":0},{"OBJECT_NAME":"ONEWEB-0369","OBJECT_ID":"2021-090S","EPOCH":"2026-01-21T09:36:56.816640","MEAN_MOTION":13.19725616,"ECCENTRICITY":0.0001737,"INCLINATION":87.9236,"RA_OF_ASC_NODE":334.1888,"ARG_OF_PERICENTER":76.4031,"MEAN_ANOMALY":283.7296,"EPHEMERIS_TYPE":0,"CLASSIFICATION_TYPE":"U","NORAD_CAT_ID":49295,"ELEMENT_SET_NO":999,"REV_AT_EPOCH":20705,"BSTAR":0.00017259,"MEAN_MOTION_DOT":8.2e-7,"MEAN_MOTION_DDOT":0},{"OBJECT_NAME":"ONEWEB-0370","OBJECT_ID":"2021-090T","EPOCH":"2026-01-21T12:10:31.277280","MEAN_MOTION":13.20812619,"ECCENTRICITY":0.0001838,"INCLINATION":87.9231,"RA_OF_ASC_NODE":303.7052,"ARG_OF_PERICENTER":87.0446,"MEAN_ANOMALY":273.0897,"EPHEMERIS_TYPE":0,"CLASSIFICATION_TYPE":"U","NORAD_CAT_ID":49296,"ELEMENT_SET_NO":999,"REV_AT_EPOCH":21050,"BSTAR":0.0002322,"MEAN_MOTION_DOT":1.07e-6,"MEAN_MOTION_DDOT":0},{"OBJECT_NAME":"ONEWEB-0371","OBJECT_ID":"2021-090U","EPOCH":"2026-01-21T07:59:09.232800","MEAN_MOTION":13.19725865,"ECCENTRICITY":0.0001704,"INCLINATION":87.924,"RA_OF_ASC_NODE":334.1899,"ARG_OF_PERICENTER":78.1589,"MEAN_ANOMALY":281.9734,"EPHEMERIS_TYPE":0,"CLASSIFICATION_TYPE":"U","NORAD_CAT_ID":49297,"ELEMENT_SET_NO":999,"REV_AT_EPOCH":20708,"BSTAR":0.00023431,"MEAN_MOTION_DOT":1.07e-6,"MEAN_MOTION_DDOT":0},{"OBJECT_NAME":"ONEWEB-0372","OBJECT_ID":"2021-090V","EPOCH":"2026-01-21T11:54:31.322304","MEAN_MOTION":13.20772446,"ECCENTRICITY":0.000163,"INCLINATION":87.923,"RA_OF_ASC_NODE":303.7066,"ARG_OF_PERICENTER":73.3192,"MEAN_ANOMALY":286.8121,"EPHEMERIS_TYPE":0,"CLASSIFICATION_TYPE":"U","NORAD_CAT_ID":49298,"ELEMENT_SET_NO":999,"REV_AT_EPOCH":21047,"BSTAR":0.00034382,"MEAN_MOTION_DOT":1.53e-6,"MEAN_MOTION_DDOT":0},{"OBJECT_NAME":"ONEWEB-0373","OBJECT_ID":"2021-090W","EPOCH":"2026-01-21T05:16:58.507104","MEAN_MOTION":13.20773547,"ECCENTRICITY":0.000179,"INCLINATION":87.922,"RA_OF_ASC_NODE":303.7726,"ARG_OF_PERICENTER":78.4817,"MEAN_ANOMALY":281.6517,"EPHEMERIS_TYPE":0,"CLASSIFICATION_TYPE":"U","NORAD_CAT_ID":49299,"ELEMENT_SET_NO":999,"REV_AT_EPOCH":21162,"BSTAR":0.0002366,"MEAN_MOTION_DOT":1.09e-6,"MEAN_MOTION_DDOT":0},{"OBJECT_NAME":"ONEWEB-0374","OBJECT_ID":"2021-090X","EPOCH":"2026-01-21T08:43:37.695936","MEAN_MOTION":13.1450481,"ECCENTRICITY":0.000219,"INCLINATION":87.903,"RA_OF_ASC_NODE":318.96,"ARG_OF_PERICENTER":69.1441,"MEAN_ANOMALY":290.9923,"EPHEMERIS_TYPE":0,"CLASSIFICATION_TYPE":"U","NORAD_CAT_ID":49300,"ELEMENT_SET_NO":999,"REV_AT_EPOCH":20827,"BSTAR":0.00052922,"MEAN_MOTION_DOT":2.09e-6,"MEAN_MOTION_DDOT":0}]
